NORAD_CAT_ID,OBJECT_NAME,OBJECT_TYPE,EPOCH,MEAN_MOTION,ECCENTRICITY,INCLINATION,RA_OF_ASC_NODE,ARG_OF_PERICENTER,MEAN_ANOMALY,BSTAR,MEAN_MOTION_DOT,MEAN_MOTION_DDOT,TLE_LINE0,TLE_LINE1,TLE_LINE2,SEMIMAJOR_AXIS,PERIOD,APOGEE,PERIGEE,DECAYED
52356.0,STARLINK-3801,PAYLOAD,2022-08-08 14:00:01,15.08878752,0.0001764,53.2156,315.9107,49.812,8.7341,-0.0026712,-0.00042595,0.0,0 STARLINK-3801,1 52356U 22045AB  22220.58335648 -.00042595  00000-0 -26712-2 0  9991,2 52356  53.2156 315.9107 0001764  49.8120   8.7341 15.08878752 18152,6917.762,95.435,540.847,538.4069999999998,0.0
52356.0,STARLINK-3801,PAYLOAD,2022-08-08 22:00:00,15.08876534,0.000178,53.2153,314.4134,52.0466,18.0654,-0.0040255,-0.00063851,0.0,0 STARLINK-3801,1 52356U 22045AB  22220.91667824 -.00063851  00000-0 -40255-2 0  9998,2 52356  53.2153 314.4134 0001780  52.0466  18.0654 15.08876534  1306,6917.769,95.435,540.865,538.4019999999998,0.0
52356.0,STARLINK-3801,PAYLOAD,2022-08-09 06:00:00,15.08841081,0.0001706,53.2155,312.9162,58.8638,22.8477,-0.00010589,-1.973e-05,0.0,0 STARLINK-3801,1 52356U 22045AB  22221.25001157 -.00001973  00000-0 -10589-3 0  9992,2 52356  53.2155 312.9162 0001706  58.8638  22.8477 15.08841081 18252,6917.877,95.437,540.922,538.562,0.0
52356.0,STARLINK-3801,PAYLOAD,2022-08-09 14:00:01,15.08819501,0.0001769,53.2153,311.4217,51.0435,42.2594,-0.0018147999999999,-0.00029039,0.0,0 STARLINK-3801,1 52356U 22045AB  22221.58334491 -.00029039  00000-0 -18148-2 0  9999,2 52356  53.2153 311.4217 0001769  51.0435  42.2594 15.08819501  1300,6917.943,95.439,541.0319999999998,538.5840000000002,0.0
52356.0,STARLINK-3801,PAYLOAD,2022-08-09 22:00:00,15.08810725,0.0001626,53.215,309.9244,49.3375,55.526,-0.0019103999999999,-0.00030539,0.0,0 STARLINK-3801,1 52356U 22045AB  22221.91667824 -.00030539  00000-0 -19104-2 0  9995,2 52356  53.2150 309.9244 0001626  49.3375  55.5260 15.08810725 18353,6917.97,95.439,540.96,538.71,0.0
52356.0,STARLINK-3801,PAYLOAD,2022-08-10 14:00:01,15.08796983,0.0001738,53.2151,306.9329,48.2475,79.7144,0.0010502,0.00016446,0.0,0 STARLINK-3801,1 52356U 22045AB  22222.58334491  .00016446  00000-0  10502-2 0  9992,2 52356  53.2151 306.9329 0001738  48.2475  79.7144 15.08796983  1303,6918.012,95.44,541.0790000000002,538.675,0.0
52356.0,STARLINK-3801,PAYLOAD,2022-08-10 17:07:18,15.08789538,0.0001733,53.2148,306.3491,45.4189,69.4279,0.0029666,0.00047177,0.0,0 STARLINK-3801,1 52356U 22045AB  22222.71341435  .00047177  00000-0  29666-2 0  9999,2 52356  53.2148 306.3491 0001733  45.4189  69.4279 15.08789538 18478,6918.035,95.441,541.099,538.701,0.0
52356.0,STARLINK-3801,PAYLOAD,2022-08-10 22:00:00,15.08826444,0.0001655,53.2149,305.4355,48.7357,90.7755,-0.001437,-0.00023077,0.0,0 STARLINK-3801,1 52356U 22045AB  22222.91667824 -.00023077  00000-0 -14370-2 0  9995,2 52356  53.2149 305.4355 0001655  48.7357  90.7755 15.08826444  1302,6917.922,95.438,540.932,538.6419999999998,0.0
52356.0,STARLINK-3801,PAYLOAD,2022-08-11 14:00:01,15.08811938,0.0001816,53.215,302.444,47.0537,115.6006,0.0015279,0.00024094,0.0,0 STARLINK-3801,1 52356U 22045AB  22223.58334491  .00024094  00000-0  15279-2 0  9997,2 52356  53.2150 302.4440 0001816  47.0537 115.6006 15.08811938  1305,6917.965999999999,95.439,541.087,538.575,0.0
52356.0,STARLINK-3801,PAYLOAD,2022-08-11 22:00:00,15.0884487,0.0001715,53.2149,300.9465,48.2078,126.0199,-0.0012943,-0.00020831,0.0,0 STARLINK-3801,1 52356U 22045AB  22223.91667824 -.00020831  00000-0 -12943-2 0  9995,2 52356  53.2149 300.9465 0001715  48.2078 126.0199 15.08844870 18650,6917.866,95.437,540.9169999999998,538.544,0.0
52356.0,STARLINK-3801,PAYLOAD,2022-08-12 14:00:01,15.08835156,0.0001899999999999,53.2149,297.9549,46.1545,151.2771,0.0022438,0.00035598,0.0,0 STARLINK-3801,1 52356U 22045AB  22224.58334491  .00035598  00000-0  22438-2 0  9994,2 52356  53.2149 297.9549 0001900  46.1545 151.2771 15.08835156 18754,6917.895,95.438,541.075,538.446,0.0
52356.0,STARLINK-3801,PAYLOAD,2022-08-12 22:00:01,15.08870457,0.0001785,53.2149,296.457,48.657,160.4412,-0.0011968,-0.00019301,0.0,0 STARLINK-3801,1 52356U 22045AB  22224.91668981 -.00019301  00000-0 -11968-2 0  9997,2 52356  53.2149 296.4570 0001785  48.6570 160.4412 15.08870457  1308,6917.7869999999975,95.436,540.887,538.4169999999998,0.0
52356.0,STARLINK-3801,PAYLOAD,2022-08-13 06:00:02,15.08874259,0.0001824,53.215,294.9604,53.9025,166.8123,-0.0026587,-0.00042393,0.0,0 STARLINK-3801,1 52356U 22045AB  22225.25002315 -.00042393  00000-0 -26587-2 0  9998,2 52356  53.2150 294.9604 0001824  53.9025 166.8123 15.08874259 18850,6917.776,95.435,540.9019999999998,538.379,0.0
52356.0,STARLINK-3801,PAYLOAD,2022-08-13 14:00:01,15.08823147,0.0002017,53.215,293.4655,48.3709,183.8999,0.0020719,0.00032825,0.0,0 STARLINK-3801,1 52356U 22045AB  22225.58334491  .00032825  00000-0  20719-2 0  9995,2 52356  53.2150 293.4655 0002017  48.3709 183.8999 15.08823147  1304,6917.932,95.439,541.192,538.4019999999998,0.0
52356.0,STARLINK-3801,PAYLOAD,2022-08-13 22:00:00,15.08844889,0.0001808,53.2157,291.9675,49.7125,194.1503,-0.0029982,-0.00047696,0.0,0 STARLINK-3801,1 52356U 22045AB  22225.91667824 -.00047696  00000-0 -29982-2 0  9996,2 52356  53.2157 291.9675 0001808  49.7125 194.1503 15.08844889  1302,6917.865,95.437,540.981,538.48,0.0
52356.0,STARLINK-3801,PAYLOAD,2022-08-14 06:00:02,15.08836558,0.0001774999999999,53.2167,290.471,52.6671,202.8421,-0.00024888,-4.247e-05,0.0,0 STARLINK-3801,1 52356U 22045AB  22226.25002315 -.00004247  00000-0 -24888-3 0  9998,2 52356  53.2167 290.4710 0001775  52.6671 202.8421 15.08836558 19005,6917.891,95.438,540.984,538.528,0.0
52356.0,STARLINK-3801,PAYLOAD,2022-08-14 14:00:01,15.0879756,0.0001996,53.2165,288.9762,47.5769,219.4175,0.0026016,0.00041312,0.0,0 STARLINK-3801,1 52356U 22045AB  22226.58334491  .00041312  00000-0  26016-2 0  9993,2 52356  53.2165 288.9762 0001996  47.5769 219.4175 15.08797560 19052,6918.01,95.44,541.256,538.494,0.0
52356.0,STARLINK-3801,PAYLOAD,2022-08-14 22:00:00,15.0882704,0.0001821,53.2163,287.4782,51.0444,227.5189,-0.00020438,-3.538e-05,0.0,0 STARLINK-3801,1 52356U 22045AB  22226.91667824 -.00003538  00000-0 -20438-3 0  9992,2 52356  53.2163 287.4782 0001821  51.0444 227.5189 15.08827040  1304,6917.92,95.438,541.045,538.525,0.0
52356.0,STARLINK-3801,PAYLOAD,2022-08-15 06:00:00,15.0884206,0.0001804,53.2163,285.9819,54.3049,235.8271,-0.00073774,-0.00012011,0.0,0 STARLINK-3801,1 52356U 22045AB  22227.25001157 -.00012011  00000-0 -73774-3 0  9998,2 52356  53.2163 285.9819 0001804  54.3049 235.8271 15.08842060 19151,6917.874,95.437,540.987,538.491,0.0
52356.0,STARLINK-3801,PAYLOAD,2022-08-15 14:00:01,15.08810771,0.0001972,53.216,284.487,48.4206,253.306,0.002578,0.00040947,0.0,0 STARLINK-3801,1 52356U 22045AB  22227.58334491  .00040947  00000-0  25780-2 0  9994,2 52356  53.2160 284.4870 0001972  48.4206 253.3060 15.08810771  1307,6917.97,95.439,541.1990000000002,538.471,0.0
52356.0,STARLINK-3801,PAYLOAD,2022-08-15 22:00:00,15.08833093,0.0001806,53.2158,282.9889,52.5791,260.7322,0.00026172,3.879e-05,0.0,0 STARLINK-3801,1 52356U 22045AB  22227.91667824  .00003879  00000-0  26172-3 0  9990,2 52356  53.2158 282.9889 0001806  52.5791 260.7322 15.08833093  1303,6917.901999999999,95.438,541.016,538.5169999999998,0.0
52356.0,STARLINK-3801,PAYLOAD,2022-08-16 06:00:02,15.08856363,0.0001816,53.2158,281.4926,54.8836,270.0729,-0.0011727,-0.00018912,0.0,0 STARLINK-3801,1 52356U 22045AB  22228.25002315 -.00018912  00000-0 -11727-2 0  9991,2 52356  53.2158 281.4926 0001816  54.8836 270.0729 15.08856363 19304,6917.83,95.437,540.952,538.439,0.0
52356.0,STARLINK-3801,PAYLOAD,2022-08-16 14:00:01,15.08822799,0.0001968,53.2155,279.9976,49.3172,287.1864,0.0026944,0.00042834,0.0,0 STARLINK-3801,1 52356U 22045AB  22228.58334491  .00042834  00000-0  26944-2 0  9995,2 52356  53.2155 279.9976 0001968  49.3172 287.1864 15.08822799  1304,6917.933000000001,95.439,541.159,538.437,0.0
52356.0,STARLINK-3801,PAYLOAD,2022-08-16 22:00:00,15.08840065,0.0001819,53.2153,278.4994,53.872,294.2319,0.00087767,0.00013708,0.0,0 STARLINK-3801,1 52356U 22045AB  22228.91667824  .00013708  00000-0  87767-3 0  9990,2 52356  53.2153 278.4994 0001819  53.8720 294.2319 15.08840065  1300,6917.88,95.438,541.004,538.487,0.0
52356.0,STARLINK-3801,PAYLOAD,2022-08-17 06:00:02,15.08868097,0.0001865,53.2154,277.0033,55.1881,304.5715,-0.001522,-0.00024448,0.0,0 STARLINK-3801,1 52356U 22045AB  22229.25002315 -.00024448  00000-0 -15220-2 0  9995,2 52356  53.2154 277.0033 0001865  55.1881 304.5715 15.08868097 19459,6917.795,95.436,540.95,538.369,0.0
52356.0,STARLINK-3801,PAYLOAD,2022-08-17 16:00:00,15.08853085,0.0001994,53.2153,275.1351,48.5823,55.6322,0.00069251,0.00010754,0.0,0 STARLINK-3801,1 52356U 22045AB  22229.66667824  .00010754  00000-0  69251-3 0  9999,2 52356  53.2153 275.1351 0001994  48.5823  55.6322 15.08853085  1309,6917.84,95.437,541.085,538.326,0.0
52356.0,STARLINK-3801,PAYLOAD,2022-08-18 14:00:01,15.08825546,0.0001982,53.2152,271.0185,47.0938,359.0737,0.0029399,0.00046793,0.0,0 STARLINK-3801,1 52356U 22045AB  22230.58334491  .00046793  00000-0  29399-2 0  9993,2 52356  53.2152 271.0185 0001982  47.0938 359.0737 15.08825546  1308,6917.925,95.438,541.161,538.418,0.0
52356.0,STARLINK-3801,PAYLOAD,2022-08-18 22:00:00,15.08835275,0.0001828,53.2154,269.5202,51.7343,6.0385,0.0020448,0.00032401,0.0,0 STARLINK-3801,1 52356U 22045AB  22230.91667824  .00032401  00000-0  20448-2 0  9996,2 52356  53.2154 269.5202 0001828  51.7343   6.0385 15.08835275  1301,6917.895,95.438,541.024,538.495,0.0
52356.0,STARLINK-3801,PAYLOAD,2022-08-19 14:00:01,15.08817309,0.0001986,53.2155,266.5291,44.4626,36.5248,0.0026607,0.00042285,0.0,0 STARLINK-3801,1 52356U 22045AB  22231.58334491  .00042285  00000-0  26607-2 0  9995,2 52356  53.2155 266.5291 0001986  44.4626  36.5248 15.08817309  1309,6917.95,95.439,541.189,538.441,0.0
